CCSDS_OMM_VERS = 2.0
CREATION_DATE  = 
ORIGINATOR     = 

OBJECT_NAME    = STARLINK-36773
OBJECT_ID      = 2026-032E
CENTER_NAME    = EARTH
REF_FRAME      = TEME
TIME_SYSTEM    = UTC
MEAN_ELEMENT_THEORY = SGP/SGP4

EPOCH          = 2026-03-13T13:31:49.740096
MEAN_MOTION    = 15.75241001
ECCENTRICITY   = .00013701
INCLINATION    = 97.2846
RA_OF_ASC_NODE = 259.2481
ARG_OF_PERICENTER = 118.1747
MEAN_ANOMALY   = 241.9657

EPHEMERIS_TYPE = 0
CLASSIFICATION_TYPE = U
NORAD_CAT_ID   = 67801
ELEMENT_SET_NO = 999
REV_AT_EPOCH   = 539
BSTAR          = .96747312E-3
MEAN_MOTION_DOT = .147009E-2
MEAN_MOTION_DDOT = 0

CCSDS_OMM_VERS = 2.0
CREATION_DATE  = 
ORIGINATOR     = 

OBJECT_NAME    = STARLINK-36739
OBJECT_ID      = 2026-032F
CENTER_NAME    = EARTH
REF_FRAME      = TEME
TIME_SYSTEM    = UTC
MEAN_ELEMENT_THEORY = SGP/SGP4

EPOCH          = 2026-03-13T14:36:53.266176
MEAN_MOTION    = 15.75211985
ECCENTRICITY   = .00016862
INCLINATION    = 97.2843
RA_OF_ASC_NODE = 259.3402
ARG_OF_PERICENTER = 100.6302
MEAN_ANOMALY   = 259.5153

EPHEMERIS_TYPE = 0
CLASSIFICATION_TYPE = U
NORAD_CAT_ID   = 67802
ELEMENT_SET_NO = 999
REV_AT_EPOCH   = 540
BSTAR          = .55561723E-3
MEAN_MOTION_DOT = .83641E-3
MEAN_MOTION_DDOT = 0

CCSDS_OMM_VERS = 2.0
CREATION_DATE  = 
ORIGINATOR     = 

OBJECT_NAME    = STARLINK-36768
OBJECT_ID      = 2026-032G
CENTER_NAME    = EARTH
REF_FRAME      = TEME
TIME_SYSTEM    = UTC
MEAN_ELEMENT_THEORY = SGP/SGP4

EPOCH          = 2026-03-13T13:23:11.543136
MEAN_MOTION    = 15.75219936
ECCENTRICITY   = .00013702
INCLINATION    = 97.2843
RA_OF_ASC_NODE = 259.2558
ARG_OF_PERICENTER = 73.4354
MEAN_ANOMALY   = 286.7061

EPHEMERIS_TYPE = 0
CLASSIFICATION_TYPE = U
NORAD_CAT_ID   = 67803
ELEMENT_SET_NO = 999
REV_AT_EPOCH   = 539
BSTAR          = .70227699E-3
MEAN_MOTION_DOT = .106067E-2
MEAN_MOTION_DDOT = 0

CCSDS_OMM_VERS = 2.0
CREATION_DATE  = 
ORIGINATOR     = 

OBJECT_NAME    = STARLINK-36792
OBJECT_ID      = 2026-032H
CENTER_NAME    = EARTH
REF_FRAME      = TEME
TIME_SYSTEM    = UTC
MEAN_ELEMENT_THEORY = SGP/SGP4

EPOCH          = 2026-03-13T13:26:44.937312
MEAN_MOTION    = 15.75241643
ECCENTRICITY   = .00014788
INCLINATION    = 97.2843
RA_OF_ASC_NODE = 259.2519
ARG_OF_PERICENTER = 103.1550
MEAN_ANOMALY   = 256.9881

EPHEMERIS_TYPE = 0
CLASSIFICATION_TYPE = U
NORAD_CAT_ID   = 67804
ELEMENT_SET_NO = 999
REV_AT_EPOCH   = 539
BSTAR          = .98474424E-3
MEAN_MOTION_DOT = .149688E-2
MEAN_MOTION_DDOT = 0

CCSDS_OMM_VERS = 2.0
CREATION_DATE  = 
ORIGINATOR     = 

OBJECT_NAME    = STARLINK-36782
OBJECT_ID      = 2026-032J
CENTER_NAME    = EARTH
REF_FRAME      = TEME
TIME_SYSTEM    = UTC
MEAN_ELEMENT_THEORY = SGP/SGP4

EPOCH          = 2026-03-13T14:22:39.536544
MEAN_MOTION    = 15.75248984
ECCENTRICITY   = .00013691
INCLINATION    = 97.2838
RA_OF_ASC_NODE = 259.3529
ARG_OF_PERICENTER = 82.2650
MEAN_ANOMALY   = 277.8771

EPHEMERIS_TYPE = 0
CLASSIFICATION_TYPE = U
NORAD_CAT_ID   = 67805
ELEMENT_SET_NO = 999
REV_AT_EPOCH   = 540
BSTAR          = .12490893E-2
MEAN_MOTION_DOT = .190889E-2
MEAN_MOTION_DDOT = 0

CCSDS_OMM_VERS = 2.0
CREATION_DATE  = 
ORIGINATOR     = 

OBJECT_NAME    = STARLINK-36389
OBJECT_ID      = 2026-032K
CENTER_NAME    = EARTH
REF_FRAME      = TEME
TIME_SYSTEM    = UTC
MEAN_ELEMENT_THEORY = SGP/SGP4

EPOCH          = 2026-03-13T14:41:57.984288
MEAN_MOTION    = 15.75263809
ECCENTRICITY   = .00017058
INCLINATION    = 97.2834
RA_OF_ASC_NODE = 259.3334
ARG_OF_PERICENTER = 98.1144
MEAN_ANOMALY   = 262.0315

EPHEMERIS_TYPE = 0
CLASSIFICATION_TYPE = U
NORAD_CAT_ID   = 67806
ELEMENT_SET_NO = 999
REV_AT_EPOCH   = 540
BSTAR          = .13288326E-2
MEAN_MOTION_DOT = .203519E-2
MEAN_MOTION_DDOT = 0

CCSDS_OMM_VERS = 2.0
CREATION_DATE  = 
ORIGINATOR     = 

OBJECT_NAME    = STARLINK-36382
OBJECT_ID      = 2026-032L
CENTER_NAME    = EARTH
REF_FRAME      = TEME
TIME_SYSTEM    = UTC
MEAN_ELEMENT_THEORY = SGP/SGP4

EPOCH          = 2026-03-13T14:38:55.131648
MEAN_MOTION    = 15.75254198
ECCENTRICITY   = .000164
INCLINATION    = 97.2835
RA_OF_ASC_NODE = 259.3358
ARG_OF_PERICENTER = 94.6049
MEAN_ANOMALY   = 265.5404

EPHEMERIS_TYPE = 0
CLASSIFICATION_TYPE = U
NORAD_CAT_ID   = 67807
ELEMENT_SET_NO = 999
REV_AT_EPOCH   = 540
BSTAR          = .12141665E-2
MEAN_MOTION_DOT = .185473E-2
MEAN_MOTION_DDOT = 0

CCSDS_OMM_VERS = 2.0
CREATION_DATE  = 
ORIGINATOR     = 

OBJECT_NAME    = STARLINK-36811
OBJECT_ID      = 2026-032M
CENTER_NAME    = EARTH
REF_FRAME      = TEME
TIME_SYSTEM    = UTC
MEAN_ELEMENT_THEORY = SGP/SGP4

EPOCH          = 2026-03-13T14:24:41.288832
MEAN_MOTION    = 15.75266031
ECCENTRICITY   = .0001368
INCLINATION    = 97.2840
RA_OF_ASC_NODE = 259.3508
ARG_OF_PERICENTER = 79.2883
MEAN_ANOMALY   = 280.8537

EPHEMERIS_TYPE = 0
CLASSIFICATION_TYPE = U
NORAD_CAT_ID   = 67808
ELEMENT_SET_NO = 999
REV_AT_EPOCH   = 540
BSTAR          = .13267601E-2
MEAN_MOTION_DOT = .203212E-2
MEAN_MOTION_DDOT = 0

CCSDS_OMM_VERS = 2.0
CREATION_DATE  = 
ORIGINATOR     = 

OBJECT_NAME    = STARLINK-36795
OBJECT_ID      = 2026-032N
CENTER_NAME    = EARTH
REF_FRAME      = TEME
TIME_SYSTEM    = UTC
MEAN_ELEMENT_THEORY = SGP/SGP4

EPOCH          = 2026-03-13T14:49:05.072448
MEAN_MOTION    = 15.75242817
ECCENTRICITY   = .00013096
INCLINATION    = 97.2840
RA_OF_ASC_NODE = 259.3262
ARG_OF_PERICENTER = 84.5339
MEAN_ANOMALY   = 275.6075

EPHEMERIS_TYPE = 0
CLASSIFICATION_TYPE = U
NORAD_CAT_ID   = 67809
ELEMENT_SET_NO = 999
REV_AT_EPOCH   = 540
BSTAR          = .132618E-2
MEAN_MOTION_DOT = .202912E-2
MEAN_MOTION_DDOT = 0

CCSDS_OMM_VERS = 2.0
CREATION_DATE  = 
ORIGINATOR     = 

OBJECT_NAME    = STARLINK-36807
OBJECT_ID      = 2026-032P
CENTER_NAME    = EARTH
REF_FRAME      = TEME
TIME_SYSTEM    = UTC
MEAN_ELEMENT_THEORY = SGP/SGP4

EPOCH          = 2026-03-13T14:26:12.882336
MEAN_MOTION    = 15.75233126
ECCENTRICITY   = .00014839
INCLINATION    = 97.2843
RA_OF_ASC_NODE = 259.3480
ARG_OF_PERICENTER = 69.9977
MEAN_ANOMALY   = 290.1448

EPHEMERIS_TYPE = 0
CLASSIFICATION_TYPE = U
NORAD_CAT_ID   = 67810
ELEMENT_SET_NO = 999
REV_AT_EPOCH   = 540
BSTAR          = .87303212E-3
MEAN_MOTION_DOT = .132373E-2
MEAN_MOTION_DDOT = 0

CCSDS_OMM_VERS = 2.0
CREATION_DATE  = 
ORIGINATOR     = 

OBJECT_NAME    = STARLINK-36733
OBJECT_ID      = 2026-032Q
CENTER_NAME    = EARTH
REF_FRAME      = TEME
TIME_SYSTEM    = UTC
MEAN_ELEMENT_THEORY = SGP/SGP4

EPOCH          = 2026-03-13T14:12:29.797056
MEAN_MOTION    = 15.75229640
ECCENTRICITY   = .00013568
INCLINATION    = 97.2840
RA_OF_ASC_NODE = 259.3603
ARG_OF_PERICENTER = 85.6278
MEAN_ANOMALY   = 274.5142

EPHEMERIS_TYPE = 0
CLASSIFICATION_TYPE = U
NORAD_CAT_ID   = 67811
ELEMENT_SET_NO = 999
REV_AT_EPOCH   = 540
BSTAR          = .93900388E-3
MEAN_MOTION_DOT = .142534E-2
MEAN_MOTION_DDOT = 0

CCSDS_OMM_VERS = 2.0
CREATION_DATE  = 
ORIGINATOR     = 

OBJECT_NAME    = STARLINK-36377
OBJECT_ID      = 2026-032R
CENTER_NAME    = EARTH
REF_FRAME      = TEME
TIME_SYSTEM    = UTC
MEAN_ELEMENT_THEORY = SGP/SGP4

EPOCH          = 2026-03-13T14:08:56.221440
MEAN_MOTION    = 15.75232685
ECCENTRICITY   = .00014755
INCLINATION    = 97.2843
RA_OF_ASC_NODE = 259.3643
ARG_OF_PERICENTER = 86.6061
MEAN_ANOMALY   = 273.5373

EPHEMERIS_TYPE = 0
CLASSIFICATION_TYPE = U
NORAD_CAT_ID   = 67812
ELEMENT_SET_NO = 999
REV_AT_EPOCH   = 540
BSTAR          = .89552613E-3
MEAN_MOTION_DOT = .13584E-2
MEAN_MOTION_DDOT = 0

