STARLINK-36773          
1 67801U 26032E   26072.56377014  .00147009  00000+0  96747-3 0  9991
2 67801  97.2846 259.2481 0001370 118.1747 241.9657 15.75241001  5398
STARLINK-36739          
1 67802U 26032F   26072.60894984  .00083641  00000+0  55562-3 0  9998
2 67802  97.2843 259.3402 0001686 100.6302 259.5153 15.75211985  5409
STARLINK-36768          
1 67803U 26032G   26072.55777249  .00106067  00000+0  70228-3 0  9991
2 67803  97.2843 259.2558 0001370  73.4354 286.7061 15.75219936  5397
STARLINK-36792          
1 67804U 26032H   26072.56024233  .00149688  00000+0  98474-3 0  9990
2 67804  97.2843 259.2519 0001478 103.1550 256.9881 15.75241643  5392
STARLINK-36782          
1 67805U 26032J   26072.59906871  .00190889  00000+0  12491-2 0  9994
2 67805  97.2838 259.3529 0001369  82.2650 277.8771 15.75248984  5403
STARLINK-36389          
1 67806U 26032K   26072.61247667  .00203519  00000+0  13288-2 0  9999
2 67806  97.2834 259.3334 0001705  98.1144 262.0315 15.75263809  5405
STARLINK-36382          
1 67807U 26032L   26072.61036032  .00185473  00000+0  12142-2 0  9998
2 67807  97.2835 259.3358 0001640  94.6049 265.5404 15.75254198  5404
STARLINK-36811          
1 67808U 26032M   26072.60047788  .00203212  00000+0  13268-2 0  9990
2 67808  97.2840 259.3508 0001368  79.2883 280.8537 15.75266031  5406
STARLINK-36795          
1 67809U 26032N   26072.61741982  .00202912  00000+0  13262-2 0  9999
2 67809  97.2840 259.3262 0001309  84.5339 275.6075 15.75242817  5409
STARLINK-36807          
1 67810U 26032P   26072.60153799  .00132373  00000+0  87303-3 0  9994
2 67810  97.2843 259.3480 0001483  69.9977 290.1448 15.75233126  5403
STARLINK-36733          
1 67811U 26032Q   26072.59201154  .00142534  00000+0  93900-3 0  9992
2 67811  97.2840 259.3603 0001356  85.6278 274.5142 15.75229640  5409
STARLINK-36377          
1 67812U 26032R   26072.58953960  .00135840  00000+0  89553-3 0  9992
2 67812  97.2843 259.3643 0001475  86.6061 273.5373 15.75232685  5408
